{"type": "FeatureCollection", "features": [ {"type": "Feature", "properties": {"norad_id": 41836, "name": "HIMAWARI-9", "group": "weather", "lat": -0.018355196787178434, "lon": -4.261137491695324, "alt_km": 35785.67951716712, "timestamp": "2025-12-11T08:58:26.756957+00:00", "meta": {"OBJECT_NAME": "HIMAWARI-9", "OBJECT_ID": "2016-064A", "EPOCH": "2025-12-10T22:46:23.028096", "MEAN_MOTION": 1.00273348, "ECCENTRICITY": 0.0001251, "INCLINATION": 0.0294, "RA_OF_ASC_NODE": 85.1357, "ARG_OF_PERICENTER": 180.7983, "MEAN_ANOMALY": 296.3576, "EPHEMERIS_TYPE": 0, "CLASSIFICATION_TYPE": "U", "NORAD_CAT_ID": 41836, "ELEMENT_SET_NO": 999, "REV_AT_EPOCH": 3332, "BSTAR": 0, "MEAN_MOTION_DOT": -2.69e-06, "MEAN_MOTION_DDOT": 0}, "tle": {"line1": "1 41836U 16064A   25344.94887764 -.00000269  00000+0  00000+0 0  9996", "line2": "2 41836   0.0294  85.1357 0001251 180.7983 296.3576  1.00273348 33320"}}, "geometry": {"type": "Point", "coordinates": [-4.261137491695324, -0.018355196787178434]}}, {"type": "Feature", "properties": {"norad_id": 41866, "name": "GOES 16", "group": "weather", "lat": 0.023785176874551398, "lon": 110.25152471180374, "alt_km": 35798.53961316671, "timestamp": "2025-12-11T08:58:26.756971+00:00", "meta": {"OBJECT_NAME": "GOES 16", "OBJECT_ID": "2016-071A", "EPOCH": "2025-12-11T05:00:38.584224", "MEAN_MOTION": 1.00271355, "ECCENTRICITY": 0.000331, "INCLINATION": 0.0662, "RA_OF_ASC_NODE": 103.7477, "ARG_OF_PERICENTER": 158.2336, "MEAN_ANOMALY": 148.679, "EPHEMERIS_TYPE": 0, "CLASSIFICATION_TYPE": "U", "NORAD_CAT_ID": 41866, "ELEMENT_SET_NO": 999, "REV_AT_EPOCH": 3321, "BSTAR": 0, "MEAN_MOTION_DOT": -8.5e-07, "MEAN_MOTION_DDOT": 0}, "tle": {"line1": "1 41866U 16071A   25345.20877991 -.00000085  00000+0  00000+0 0  9994", "line2": "2 41866   0.0662 103.7477 0003310 158.2336 148.6790  1.00271355 33213"}}, "geometry": {"type": "Point", "coordinates": [110.25152471180374, 0.023785176874551398]}}, {"type": "Feature", "properties": {"norad_id": 41882, "name": "FENGYUN 4A", "group": "weather", "lat": -1.7955935294888052, "lon": -21.171452049396905, "alt_km": 35794.07702329717, "timestamp": "2025-12-11T08:58:26.756983+00:00", "meta": {"OBJECT_NAME": "FENGYUN 4A", "OBJECT_ID": "2016-077A", "EPOCH": "2025-12-10T22:41:30.995232", "MEAN_MOTION": 1.00270325, "ECCENTRICITY": 0.0004947, "INCLINATION": 1.8448, "RA_OF_ASC_NODE": 82.3997, "ARG_OF_PERICENTER": 145.8044, "MEAN_ANOMALY": 315.9271, "EPHEMERIS_TYPE": 0, "CLASSIFICATION_TYPE": "U", "NORAD_CAT_ID": 41882, "ELEMENT_SET_NO": 999, "REV_AT_EPOCH": 3304, "BSTAR": 0, "MEAN_MOTION_DOT": -3.51e-06, "MEAN_MOTION_DDOT": 0}, "tle": {"line1": "1 41882U 16077A   25344.94549763 -.00000351  00000+0  00000+0 0  9997", "line2": "2 41882   1.8448  82.3997 0004947 145.8044 315.9271  1.00270325 33046"}}, "geometry": {"type": "Point", "coordinates": [-21.171452049396905, -1.7955935294888052]}}, {"type": "Feature", "properties": {"norad_id": 41884, "name": "CYGFM05", "group": "weather", "lat": -29.72117019328363, "lon": 1.2571294760623164, "alt_km": 429.8870065593792, "timestamp": "2025-12-11T08:58:26.756996+00:00", "meta": {"OBJECT_NAME": "CYGFM05", "OBJECT_ID": "2016-078A", "EPOCH": "2025-12-10T14:39:13.190112", "MEAN_MOTION": 15.47511355, "ECCENTRICITY": 0.0009831, "INCLINATION": 34.9599, "RA_OF_ASC_NODE": 61.038, "ARG_OF_PERICENTER": 163.8231, "MEAN_ANOMALY": 196.2806, "EPHEMERIS_TYPE": 0, "CLASSIFICATION_TYPE": "U", "NORAD_CAT_ID": 41884, "ELEMENT_SET_NO": 999, "REV_AT_EPOCH": 49943, "BSTAR": 0.00053014, "MEAN_MOTION_DOT": 0.00028182, "MEAN_MOTION_DDOT": 0}, "tle": {"line1": "1 41884U 16078A   25344.61056933  .00028182  00000+0  53014-3 0  9994", "line2": "2 41884  34.9599  61.0380 0009831 163.8231 196.2806 15.47511355499437"}}, "geometry": {"type": "Point", "coordinates": [1.2571294760623164, -29.72117019328363]}}, {"type": "Feature", "properties": {"norad_id": 41885, "name": "CYGFM04", "group": "weather", "lat": 7.993944733906213, "lon": -160.73783022972793, "alt_km": 408.41599163184856, "timestamp": "2025-12-11T08:58:26.757007+00:00", "meta": {"OBJECT_NAME": "CYGFM04", "OBJECT_ID": "2016-078B", "EPOCH": "2025-12-11T05:10:15.261024", "MEAN_MOTION": 15.50253056, "ECCENTRICITY": 0.0009303, "INCLINATION": 34.9353, "RA_OF_ASC_NODE": 31.908, "ARG_OF_PERICENTER": 196.8929, "MEAN_ANOMALY": 163.1484, "EPHEMERIS_TYPE": 0, "CLASSIFICATION_TYPE": "U", "NORAD_CAT_ID": 41885, "ELEMENT_SET_NO": 999, "REV_AT_EPOCH": 49970, "BSTAR": 0.00052473, "MEAN_MOTION_DOT": 0.00030733, "MEAN_MOTION_DDOT": 0}, "tle": {"line1": "1 41885U 16078B   25345.21545441  .00030733  00000+0  52473-3 0  9992", "line2": "2 41885  34.9353  31.9080 0009303 196.8929 163.1484 15.50253056499703"}}, "geometry": {"type": "Point", "coordinates": [-160.73783022972793, 7.993944733906213]}}, {"type": "Feature", "properties": {"norad_id": 41886, "name": "CYGFM02", "group": "weather", "lat": 4.464813325735029, "lon": -157.20815008144552, "alt_km": 403.5501992967984, "timestamp": "2025-12-11T08:58:26.757018+00:00", "meta": {"OBJECT_NAME": "CYGFM02", "OBJECT_ID": "2016-078C", "EPOCH": "2025-12-11T05:08:50.924256", "MEAN_MOTION": 15.51625052, "ECCENTRICITY": 0.0010962, "INCLINATION": 34.9444, "RA_OF_ASC_NODE": 30.2604, "ARG_OF_PERICENTER": 196.6224, "MEAN_ANOMALY": 163.4141, "EPHEMERIS_TYPE": 0, "CLASSIFICATION_TYPE": "U", "NORAD_CAT_ID": 41886, "ELEMENT_SET_NO": 999, "REV_AT_EPOCH": 49983, "BSTAR": 0.00053842, "MEAN_MOTION_DOT": 0.00033157, "MEAN_MOTION_DDOT": 0}, "tle": {"line1": "1 41886U 16078C   25345.21447829  .00033157  00000+0  53842-3 0  9998", "line2": "2 41886  34.9444  30.2604 0010962 196.6224 163.4141 15.51625052499835"}}, "geometry": {"type": "Point", "coordinates": [-157.20815008144552, 4.464813325735029]}}, {"type": "Feature", "properties": {"norad_id": 41887, "name": "CYGFM01", "group": "weather", "lat": -10.589459102030164, "lon": 42.88083523787028, "alt_km": 428.748826023354, "timestamp": "2025-12-11T08:58:26.757028+00:00", "meta": {"OBJECT_NAME": "CYGFM01", "OBJECT_ID": "2016-078D", "EPOCH": "2025-12-10T22:13:16.222080", "MEAN_MOTION": 15.48103632, "ECCENTRICITY": 0.0009424, "INCLINATION": 34.9432, "RA_OF_ASC_NODE": 61.3408, "ARG_OF_PERICENTER": 158.7693, "MEAN_ANOMALY": 201.3421, "EPHEMERIS_TYPE": 0, "CLASSIFICATION_TYPE": "U", "NORAD_CAT_ID": 41887, "ELEMENT_SET_NO": 999, "REV_AT_EPOCH": 49942, "BSTAR": 0.00053215, "MEAN_MOTION_DOT": 0.00028881, "MEAN_MOTION_DDOT": 0}, "tle": {"line1": "1 41887U 16078D   25344.92588220  .00028881  00000+0  53215-3 0  9999", "line2": "2 41887  34.9432  61.3408 0009424 158.7693 201.3421 15.48103632499429"}}, "geometry": {"type": "Point", "coordinates": [42.88083523787028, -10.589459102030164]}}, {"type": "Feature", "properties": {"norad_id": 41888, "name": "CYGFM08", "group": "weather", "lat": 13.306574506312264, "lon": 61.216692646391415, "alt_km": 423.0770263101049, "timestamp": "2025-12-11T08:58:26.757040+00:00", "meta": {"OBJECT_NAME": "CYGFM08", "OBJECT_ID": "2016-078E", "EPOCH": "2025-12-11T04:13:57.874656", "MEAN_MOTION": 15.49317028, "ECCENTRICITY": 0.0011383, "INCLINATION": 34.9462, "RA_OF_ASC_NODE": 42.7135, "ARG_OF_PERICENTER": 184.8432, "MEAN_ANOMALY": 175.2181, "EPHEMERIS_TYPE": 0, "CLASSIFICATION_TYPE": "U", "NORAD_CAT_ID": 41888, "ELEMENT_SET_NO": 999, "REV_AT_EPOCH": 49969, "BSTAR": 0.00051808, "MEAN_MOTION_DOT": 0.0002937, "MEAN_MOTION_DDOT": 0}, "tle": {"line1": "1 41888U 16078E   25345.17636429  .00029370  00000+0  51808-3 0  9993", "line2": "2 41888  34.9462  42.7135 0011383 184.8432 175.2181 15.49317028499699"}}, "geometry": {"type": "Point", "coordinates": [61.216692646391415, 13.306574506312264]}}, {"type": "Feature", "properties": {"norad_id": 41890, "name": "CYGFM07", "group": "weather", "lat": 4.920425463547078, "lon": 37.488908632731, "alt_km": 421.6126180931342, "timestamp": "2025-12-11T08:58:26.757052+00:00", "meta": {"OBJECT_NAME": "CYGFM07", "OBJECT_ID": "2016-078G", "EPOCH": "2025-12-11T04:17:57.980256", "MEAN_MOTION": 15.49896476, "ECCENTRICITY": 0.0009773, "INCLINATION": 34.9483, "RA_OF_ASC_NODE": 31.6847, "ARG_OF_PERICENTER": 202.3407, "MEAN_ANOMALY": 157.689, "EPHEMERIS_TYPE": 0, "CLASSIFICATION_TYPE": "U", "NORAD_CAT_ID": 41890, "ELEMENT_SET_NO": 999, "REV_AT_EPOCH": 49971, "BSTAR": 0.00052095, "MEAN_MOTION_DOT": 0.00030129, "MEAN_MOTION_DDOT": 0}, "tle": {"line1": "1 41890U 16078G   25345.17914329  .00030129  00000+0  52095-3 0  9997", "line2": "2 41890  34.9483  31.6847 0009773 202.3407 157.6890 15.49896476499713"}}, "geometry": {"type": "Point", "coordinates": [37.488908632731, 4.920425463547078]}}, {"type": "Feature", "properties": {"norad_id": 41891, "name": "CYGFM03", "group": "weather", "lat": -13.443880630052355, "lon": -127.65400756116745, "alt_km": 411.70846400677055, "timestamp": "2025-12-11T08:58:26.757063+00:00", "meta": {"OBJECT_NAME": "CYGFM03", "OBJECT_ID": "2016-078H", "EPOCH": "2025-12-11T05:00:24.833664", "MEAN_MOTION": 15.49798407, "ECCENTRICITY": 0.0009092, "INCLINATION": 34.9435, "RA_OF_ASC_NODE": 33.4093, "ARG_OF_PERICENTER": 189.8697, "MEAN_ANOMALY": 170.1848, "EPHEMERIS_TYPE": 0, "CLASSIFICATION_TYPE": "U", "NORAD_CAT_ID": 41891, "ELEMENT_SET_NO": 999, "REV_AT_EPOCH": 49969, "BSTAR": 0.00051515, "MEAN_MOTION_DOT": 0.0002968, "MEAN_MOTION_DDOT": 0}, "tle": {"line1": "1 41891U 16078H   25345.20862076  .00029680  00000+0  51515-3 0  9999", "line2": "2 41891  34.9435  33.4093 0009092 189.8697 170.1848 15.49798407499693"}}, "geometry": {"type": "Point", "coordinates": [-127.65400756116745, -13.443880630052355]}}]}